start=new Date('2023-05-19T00:00:00.000Z').valueOf();
sats=[{"RCS_SIZE":"LARGE","OBJECT_NAME":"STARLINK-3920","SEMIMAJOR_AXIS":"6917.881","OBJECT_TYPE":"PAYLOAD","TIME_SYSTEM":"UTC","INCLINATION":"53.2179","ELEMENT_SET_NO":"999","REV_AT_EPOCH":"5670","MEAN_ANOMALY":"273.5286","OBJECT_ID":"2022-051AR","MEAN_MOTION_DOT":"-0.00001342","REF_FRAME":"TEME","BSTAR":"-0.00006627900000","CENTER_NAME":"EARTH","MEAN_MOTION_DDOT":"0.0000000000000","CLASSIFICATION_TYPE":"U","DECAY_DATE":null,"PERIAPSIS":"538.939","COUNTRY_CODE":"US","ECCENTRICITY":"0.00011660","EPOCH":"2023-05-18T18:12:59.439456","NORAD_CAT_ID":"52575","MEAN_MOTION":"15.08839937","FILE":"3911388","LAUNCH_DATE":"2022-05-13","ARG_OF_PERICENTER":"86.5840","APOAPSIS":"540.552","EPHEMERIS_TYPE":"0","SITE":"AFWTR","RA_OF_ASC_NODE":"44.7024","PERIOD":"95.438","GP_ID":"232115046","MEAN_ELEMENT_THEORY":"SGP4","TLE_LINE2":"2 52575  53.2179  44.7024 0001166  86.5840 273.5286 15.08839937 56703","TLE_LINE1":"1 52575U 22051AR  23138.75902129 -.00001342  00000-0 -66279-4 0  9992"},{"REV_AT_EPOCH":"5670","MEAN_MOTION_DOT":"-0.00000146","OBJECT_ID":"2022-051AS","MEAN_ANOMALY":"277.4040","RCS_SIZE":"LARGE","SEMIMAJOR_AXIS":"6917.871","OBJECT_TYPE":"PAYLOAD","OBJECT_NAME":"STARLINK-3932","INCLINATION":"53.2171","ELEMENT_SET_NO":"999","TIME_SYSTEM":"UTC","LAUNCH_DATE":"2022-05-13","ARG_OF_PERICENTER":"82.7106","APOAPSIS":"540.675","RA_OF_ASC_NODE":"44.7302","PERIOD":"95.437","EPHEMERIS_TYPE":"0","SITE":"AFWTR","TLE_LINE1":"1 52576U 22051AS  23138.75261503 -.00000146  00000-0  88867-5 0  9995","TLE_LINE2":"2 52576  53.2171  44.7302 0001357  82.7106 277.4040 15.08843011 56709","GP_ID":"232116298","MEAN_ELEMENT_THEORY":"SGP4","MEAN_MOTION_DDOT":"0.0000000000000","CLASSIFICATION_TYPE":"U","BSTAR":"0.00000888670000","REF_FRAME":"TEME","CENTER_NAME":"EARTH","DECAY_DATE":null,"PERIAPSIS":"538.797","ECCENTRICITY":"0.00013570","COUNTRY_CODE":"US","MEAN_MOTION":"15.08843011","FILE":"3911388","EPOCH":"2023-05-18T18:03:45.938592","NORAD_CAT_ID":"52576"},{"INCLINATION":"53.2173","ELEMENT_SET_NO":"999","TIME_SYSTEM":"UTC","RCS_SIZE":"LARGE","SEMIMAJOR_AXIS":"6917.893","OBJECT_TYPE":"PAYLOAD","OBJECT_NAME":"STARLINK-3836","MEAN_MOTION_DOT":"0.00000287","MEAN_ANOMALY":"270.3231","OBJECT_ID":"2022-051AT","REV_AT_EPOCH":"5639","COUNTRY_CODE":"US","ECCENTRICITY":"0.00012330","MEAN_MOTION":"15.08835864","FILE":"3911221","EPOCH":"2023-05-18T01:48:00.010368","NORAD_CAT_ID":"52577","CLASSIFICATION_TYPE":"U","MEAN_MOTION_DDOT":"0.0000000000000","REF_FRAME":"TEME","BSTAR":"0.00003610000000","CENTER_NAME":"EARTH","DECAY_DATE":null,"PERIAPSIS":"538.905","RA_OF_ASC_NODE":"62.7693","PERIOD":"95.438","EPHEMERIS_TYPE":"0","SITE":"AFWTR","TLE_LINE1":"1 52577U 22051AT  23138.07500012  .00000287  00000-0  36100-4 0  9999","TLE_LINE2":"2 52577  53.2173  62.7693 0001233  89.7903 270.3231 15.08835864 56396","GP_ID":"232084819","MEAN_ELEMENT_THEORY":"SGP4","LAUNCH_DATE":"2022-05-13","ARG_OF_PERICENTER":"89.7903","APOAPSIS":"540.611"},{"MEAN_MOTION_DOT":"-0.00000951","MEAN_ANOMALY":"274.6148","OBJECT_ID":"2022-051AU","REV_AT_EPOCH":"5641","INCLINATION":"53.2172","ELEMENT_SET_NO":"999","TIME_SYSTEM":"UTC","SEMIMAJOR_AXIS":"6917.884","OBJECT_TYPE":"PAYLOAD","OBJECT_NAME":"STARLINK-3833","RCS_SIZE":"LARGE","TLE_LINE1":"1 52578U 22051AU  23138.21115842 -.00000951  00000-0 -41672-4 0  9999","TLE_LINE2":"2 52578  53.2172  62.1587 0001222  85.4984 274.6148 15.08838732 56416","GP_ID":"232085571","MEAN_ELEMENT_THEORY":"SGP4","RA_OF_ASC_NODE":"62.1587","PERIOD":"95.438","EPHEMERIS_TYPE":"0","SITE":"AFWTR","ARG_OF_PERICENTER":"85.4984","APOAPSIS":"540.595","LAUNCH_DATE":"2022-05-13","MEAN_MOTION":"15.08838732","FILE":"3911221","EPOCH":"2023-05-18T05:04:04.087488","NORAD_CAT_ID":"52578","ECCENTRICITY":"0.00012220","COUNTRY_CODE":"US","DECAY_DATE":null,"PERIAPSIS":"538.904","CLASSIFICATION_TYPE":"U","MEAN_MOTION_DDOT":"0.0000000000000","BSTAR":"-0.00004167200000","REF_FRAME":"TEME","CENTER_NAME":"EARTH"},{"APOAPSIS":"540.561","ARG_OF_PERICENTER":"79.3236","LAUNCH_DATE":"2022-05-13","TLE_LINE1":"1 52579U 22051AV  23138.06763728  .00000420  00000-0  44466-4 0  9998","TLE_LINE2":"2 52579  53.2173  62.8058 0001176  79.3236 280.7888 15.08839267 56398","MEAN_ELEMENT_THEORY":"SGP4","GP_ID":"232086321","PERIOD":"95.438","RA_OF_ASC_NODE":"62.8058","SITE":"AFWTR","EPHEMERIS_TYPE":"0","PERIAPSIS":"538.934","DECAY_DATE":null,"MEAN_MOTION_DDOT":"0.0000000000000","CLASSIFICATION_TYPE":"U","CENTER_NAME":"EARTH","BSTAR":"0.00004446600000","REF_FRAME":"TEME","FILE":"3911221","MEAN_MOTION":"15.08839267","NORAD_CAT_ID":"52579","EPOCH":"2023-05-18T01:37:23.860992","ECCENTRICITY":"0.00011760","COUNTRY_CODE":"US","REV_AT_EPOCH":"5639","MEAN_MOTION_DOT":"0.00000420","MEAN_ANOMALY":"280.7888","OBJECT_ID":"2022-051AV","OBJECT_TYPE":"PAYLOAD","SEMIMAJOR_AXIS":"6917.883","OBJECT_NAME":"STARLINK-3893","RCS_SIZE":"LARGE","ELEMENT_SET_NO":"999","INCLINATION":"53.2173","TIME_SYSTEM":"UTC"},{"CENTER_NAME":"EARTH","BSTAR":"0.00042654000000","REF_FRAME":"TEME","CLASSIFICATION_TYPE":"U","MEAN_MOTION_DDOT":"0.0000000000000","PERIAPSIS":"538.713","DECAY_DATE":null,"ECCENTRICITY":"0.00014210","COUNTRY_CODE":"US","NORAD_CAT_ID":"52580","EPOCH":"2023-05-18T01:44:05.272800","FILE":"3911221","MEAN_MOTION":"15.08856128","LAUNCH_DATE":"2022-05-13","APOAPSIS":"540.679","ARG_OF_PERICENTER":"92.4717","SITE":"AFWTR","EPHEMERIS_TYPE":"0","PERIOD":"95.437","RA_OF_ASC_NODE":"62.7908","MEAN_ELEMENT_THEORY":"SGP4","GP_ID":"232085070","TLE_LINE1":"1 52580U 22051AW  23138.07228325  .00006510  00000-0  42654-3 0  9992","TLE_LINE2":"2 52580  53.2171  62.7908 0001421  92.4717 267.6438 15.08856128 56394","RCS_SIZE":"LARGE","OBJECT_NAME":"STARLINK-3919","OBJECT_TYPE":"PAYLOAD","SEMIMAJOR_AXIS":"6917.831","TIME_SYSTEM":"UTC","ELEMENT_SET_NO":"999","INCLINATION":"53.2171","REV_AT_EPOCH":"5639","MEAN_ANOMALY":"267.6438","OBJECT_ID":"2022-051AW","MEAN_MOTION_DOT":"0.00006510"},{"TIME_SYSTEM":"UTC","INCLINATION":"53.2175","ELEMENT_SET_NO":"999","OBJECT_NAME":"STARLINK-3915","SEMIMAJOR_AXIS":"6917.889","OBJECT_TYPE":"PAYLOAD","RCS_SIZE":"LARGE","MEAN_ANOMALY":"278.1043","OBJECT_ID":"2022-051AX","MEAN_MOTION_DOT":"0.00000179","REV_AT_EPOCH":"5659","EPOCH":"2023-05-18T00:27:51.034752","NORAD_CAT_ID":"52581","MEAN_MOTION":"15.08837090","FILE":"3911388","ECCENTRICITY":"0.00011760","COUNTRY_CODE":"US","DECAY_DATE":null,"PERIAPSIS":"538.941","BSTAR":"0.00002932600000","REF_FRAME":"TEME","CENTER_NAME":"EARTH","MEAN_MOTION_DDOT":"0.0000000000000","CLASSIFICATION_TYPE":"U","GP_ID":"232116549","MEAN_ELEMENT_THEORY":"SGP4","TLE_LINE1":"1 52581U 22051AX  23138.01934068  .00000179  00000-0  29326-4 0  9992","TLE_LINE2":"2 52581  53.2175  48.0245 0001176  82.0082 278.1043 15.08837090 56595","EPHEMERIS_TYPE":"0","SITE":"AFWTR","RA_OF_ASC_NODE":"48.0245","PERIOD":"95.438","ARG_OF_PERICENTER":"82.0082","APOAPSIS":"540.568","LAUNCH_DATE":"2022-05-13"},{"APOAPSIS":"540.604","ARG_OF_PERICENTER":"99.2181","LAUNCH_DATE":"2022-05-13","MEAN_ELEMENT_THEORY":"SGP4","GP_ID":"232086071","TLE_LINE2":"2 52582  53.2170  47.9881 0001238  99.2181 260.8951 15.08839263 56594","TLE_LINE1":"1 52582U 22051AY  23138.02669897  .00001526  00000-0  11395-3 0  9992","SITE":"AFWTR","EPHEMERIS_TYPE":"0","PERIOD":"95.438","RA_OF_ASC_NODE":"47.9881","PERIAPSIS":"538.891","DECAY_DATE":null,"CENTER_NAME":"EARTH","BSTAR":"0.00011395000000","REF_FRAME":"TEME","CLASSIFICATION_TYPE":"U","MEAN_MOTION_DDOT":"0.0000000000000","NORAD_CAT_ID":"52582","EPOCH":"2023-05-18T00:38:26.791008","FILE":"3911221","MEAN_MOTION":"15.08839263","ECCENTRICITY":"0.00012380","COUNTRY_CODE":"US","REV_AT_EPOCH":"5659","MEAN_ANOMALY":"260.8951","OBJECT_ID":"2022-051AY","MEAN_MOTION_DOT":"0.00001526","OBJECT_NAME":"STARLINK-3886","OBJECT_TYPE":"PAYLOAD","SEMIMAJOR_AXIS":"6917.883","RCS_SIZE":"LARGE","TIME_SYSTEM":"UTC","ELEMENT_SET_NO":"999","INCLINATION":"53.2170"},{"CLASSIFICATION_TYPE":"U","MEAN_MOTION_DDOT":"0.0000000000000","CENTER_NAME":"EARTH","BSTAR":"0.00014202000000","REF_FRAME":"TEME","PERIAPSIS":"538.973","DECAY_DATE":null,"COUNTRY_CODE":"US","ECCENTRICITY":"0.00011050","FILE":"3911221","MEAN_MOTION":"15.08842718","NORAD_CAT_ID":"52583","EPOCH":"2023-05-18T03:33:19.199232","LAUNCH_DATE":"2022-05-13","APOAPSIS":"540.502","ARG_OF_PERICENTER":"100.7580","PERIOD":"95.437","RA_OF_ASC_NODE":"47.4412","SITE":"AFWTR","EPHEMERIS_TYPE":"0","TLE_LINE2":"2 52583  53.2175  47.4412 0001105 100.7580 259.3536 15.08842718 56613","TLE_LINE1":"1 52583U 22051AZ  23138.14813888  .00001973  00000-0  14202-3 0  9993","MEAN_ELEMENT_THEORY":"SGP4","GP_ID":"232085822","RCS_SIZE":"LARGE","OBJECT_TYPE":"PAYLOAD","SEMIMAJOR_AXIS":"6917.872","OBJECT_NAME":"STARLINK-3895","ELEMENT_SET_NO":"999","INCLINATION":"53.2175","TIME_SYSTEM":"UTC","REV_AT_EPOCH":"5661","MEAN_MOTION_DOT":"0.00001973","OBJECT_ID":"2022-051AZ","MEAN_ANOMALY":"259.3536"},{"TIME_SYSTEM":"UTC","ELEMENT_SET_NO":"999","INCLINATION":"53.2171","OBJECT_NAME":"STARLINK-3922","OBJECT_TYPE":"PAYLOAD","SEMIMAJOR_AXIS":"6917.885","RCS_SIZE":"LARGE","MEAN_ANOMALY":"262.9116","OBJECT_ID":"2022-051BA","MEAN_MOTION_DOT":"0.00002525","REV_AT_EPOCH":"5672","NORAD_CAT_ID":"52584","EPOCH":"2023-05-18T21:13:09.657120","FILE":"3911388","MEAN_MOTION":"15.08838484","ECCENTRICITY":"0.00013130","COUNTRY_CODE":"US","PERIAPSIS":"538.842","DECAY_DATE":null,"CENTER_NAME":"EARTH","REF_FRAME":"TEME","BSTAR":"0.00017669000000","CLASSIFICATION_TYPE":"U","MEAN_MOTION_DDOT":"0.0000000000000","MEAN_ELEMENT_THEORY":"SGP4","GP_ID":"232116299","TLE_LINE1":"1 52584U 22051BA  23138.88413955  .00002525  00000-0  17669-3 0  9990","TLE_LINE2":"2 52584  53.2171  44.1371 0001313  97.2025 262.9116 15.08838484 56724","SITE":"AFWTR","EPHEMERIS_TYPE":"0","PERIOD":"95.438","RA_OF_ASC_NODE":"44.1371","APOAPSIS":"540.658","ARG_OF_PERICENTER":"97.2025","LAUNCH_DATE":"2022-05-13"}];
